NORAD_CAT_ID,OBJECT_NAME,OBJECT_TYPE,EPOCH,MEAN_MOTION,ECCENTRICITY,INCLINATION,RA_OF_ASC_NODE,ARG_OF_PERICENTER,MEAN_ANOMALY,BSTAR,MEAN_MOTION_DOT,MEAN_MOTION_DDOT,TLE_LINE0,TLE_LINE1,TLE_LINE2,SEMIMAJOR_AXIS,PERIOD,APOGEE,PERIGEE,DECAYED
52638.0,STARLINK-3941,PAYLOAD,2022-05-20 16:00:00,15.80648478,9.57e-05,53.2173,50.8349,90.8131,315.9612,-0.0049584,-0.00876221,0.0,0 STARLINK-3941,1 52638U 22052AS  22140.66667824 -.00876221  00000-0 -49584-2 0  9999,2 52638  53.2173  50.8349 0000957  90.8131 315.9612 15.80648478  1301,6706.743,91.102,329.25,327.966,0.0
52638.0,STARLINK-3941,PAYLOAD,2022-05-21 20:00:01,15.78447208,0.0001176,53.2178,45.0079,89.4783,115.215,-0.0054835,-0.00875944,0.0,0 STARLINK-3941,1 52638U 22052AS  22141.83334491 -.00875944  00000-0 -54835-2 0  9996,2 52638  53.2178  45.0079 0001176  89.4783 115.2150 15.78447208  1485,6712.977,91.229,335.631,334.052,0.0
52638.0,STARLINK-3941,PAYLOAD,2022-05-21 22:00:00,15.78290525,0.0001058,53.2176,44.593,91.2663,227.2091,-0.0055323,-0.00877292,0.0,0 STARLINK-3941,1 52638U 22052AS  22141.91667824 -.00877292  00000-0 -55323-2 0  9995,2 52638  53.2176  44.5930 0001058  91.2663 227.2091 15.78290525  1307,6713.420999999999,91.238,335.996,334.576,0.0
52638.0,STARLINK-3941,PAYLOAD,2022-05-22 14:00:01,15.7703044,0.0001092,53.2171,41.2707,92.7479,54.2892,-0.0058338,-0.00874338,0.0,0 STARLINK-3941,1 52638U 22052AS  22142.58334491 -.00874338  00000-0 -58338-2 0  9997,2 52638  53.2171  41.2707 0001092  92.7479  54.2892 15.77030440  1301,6716.996999999999,91.311,339.595,338.1280000000001,0.0
52638.0,STARLINK-3941,PAYLOAD,2022-05-22 20:00:01,15.7655924,0.0001098,53.2174,40.0278,81.0276,45.9391,-0.0059669,-0.00875522,0.0,0 STARLINK-3941,1 52638U 22052AS  22142.83334491 -.00875522  00000-0 -59669-2 0  9999,2 52638  53.2174  40.0278 0001098  81.0276  45.9391 15.76559240  1647,6718.335,91.338,340.9380000000001,339.462,0.0
52638.0,STARLINK-3941,PAYLOAD,2022-05-22 22:00:01,15.76400062,0.0001181,53.2174,39.614,85.7445,154.5038,-0.0059877,-0.00872691,0.0,0 STARLINK-3941,1 52638U 22052AS  22142.91668981 -.00872691  00000-0 -59877-2 0  9997,2 52638  53.2174  39.6140 0001181  85.7445 154.5038 15.76400062  1306,6718.7869999999975,91.347,341.446,339.8590000000001,0.0
52638.0,STARLINK-3941,PAYLOAD,2022-05-23 14:00:01,15.75142142,0.0001013,53.2173,36.3008,109.0084,315.1981,-0.0063405,-0.00873873,0.0,0 STARLINK-3941,1 52638U 22052AS  22143.58334491 -.00873873  00000-0 -63405-2 0  9992,2 52638  53.2173  36.3008 0001013 109.0084 315.1981 15.75142142  1308,6722.364000000001,91.42,344.91,343.548,0.0
52638.0,STARLINK-3941,PAYLOAD,2022-05-23 20:00:01,15.74672233,9.85e-05,53.2177,35.0616,98.1559,304.2784,-0.006493,-0.00876342,0.0,0 STARLINK-3941,1 52638U 22052AS  22143.83334491 -.00876342  00000-0 -64930-2 0  9998,2 52638  53.2177  35.0616 0000985  98.1559 304.2784 15.74672233  1808,6723.701,91.448,346.228,344.904,0.0
52638.0,STARLINK-3941,PAYLOAD,2022-05-23 22:00:01,15.74511988,0.0001176,53.2175,34.6488,89.6042,65.5445,-0.006501,-0.00871832,0.0,0 STARLINK-3941,1 52638U 22052AS  22143.91668981 -.00871832  00000-0 -65010-2 0  9990,2 52638  53.2175  34.6488 0001176  89.6042  65.5445 15.74511988  1308,6724.156999999997,91.457,346.81300000000016,345.231,0.0
52638.0,STARLINK-3941,PAYLOAD,2022-05-24 12:00:00,15.73251355,0.0001143,53.2174,31.7575,102.2388,120.0788,-0.00053729,-0.00075515,0.0,0 STARLINK-3941,1 52638U 22052AS  22144.50001157 -.00075515  00000-0 -53729-3 0  9991,2 52638  53.2174  31.7575 0001143 102.2388 120.0788 15.73251355  1902,6727.749,91.53,350.3830000000001,348.845,0.0
52638.0,STARLINK-3941,PAYLOAD,2022-05-24 14:00:01,15.73205329,0.0001153,53.2172,31.3448,109.8917,224.6822,-1.8945e-05,-3.278e-05,0.0,0 STARLINK-3941,1 52638U 22052AS  22144.58334491 -.00003278  00000-0 -18945-4 0  9998,2 52638  53.2172  31.3448 0001153 109.8917 224.6822 15.73205329  1301,6727.88,91.533,350.521,348.969,0.0
52638.0,STARLINK-3941,PAYLOAD,2022-05-24 22:00:00,15.73118073,0.0001005,53.2157,29.6986,110.0044,313.4851,0.0014712999999999,0.00210382,0.0,0 STARLINK-3941,1 52638U 22052AS  22144.91667824  .00210382  00000-0  14713-2 0  9995,2 52638  53.2157  29.6986 0001005 110.0044 313.4851 15.73118073  1300,6728.129,91.538,350.67,349.3180000000001,0.0
52638.0,STARLINK-3941,PAYLOAD,2022-05-25 04:00:00,15.7317783,0.000101,53.2141,28.464,104.4706,295.6956,0.0007509999999999,0.00106015,0.0,0 STARLINK-3941,1 52638U 22052AS  22145.16667824  .00106015  00000-0  75100-3 0  9998,2 52638  53.2141  28.4640 0001010 104.4706 295.6956 15.73177830  2017,6727.958000000001,91.534,350.50300000000016,349.144,0.0
52638.0,STARLINK-3941,PAYLOAD,2022-05-25 12:00:00,15.73242968,0.0001172,53.2146,26.8122,114.8481,14.2567,-2.6186e-05,-4.3e-05,0.0,0 STARLINK-3941,1 52638U 22052AS  22145.50001157 -.00004300  00000-0 -26186-4 0  9994,2 52638  53.2146  26.8122 0001172 114.8481  14.2567 15.73242968  2066,6727.773,91.531,350.426,348.849,0.0
52638.0,STARLINK-3941,PAYLOAD,2022-05-25 14:00:01,15.73261318,0.000125,53.2145,26.3994,115.3604,125.9851,-0.00037452,-0.00052989,0.0,0 STARLINK-3941,1 52638U 22052AS  22145.58334491 -.00052989  00000-0 -37452-3 0  9995,2 52638  53.2145  26.3994 0001250 115.3604 125.9851 15.73261318  1309,6727.72,91.53,350.426,348.744,0.0
52638.0,STARLINK-3941,PAYLOAD,2022-05-25 20:36:05,15.73282128,8.7e-05,53.2151,25.0392,102.8788,257.233,0.00044599,0.00062661,0.0,0 STARLINK-3941,1 52638U 22052AS  22145.85840185  .00062661  00000-0  44599-3 0  9993,2 52638  53.2151  25.0392 0000870 102.8788 257.2330 15.73282128  2556,6727.661,91.528,350.111,348.941,0.0
52638.0,STARLINK-3941,PAYLOAD,2022-05-26 08:47:55,15.73255252,0.0001364,53.2152,22.5233,111.0004,249.1162,0.00037307,0.00052188,0.0,0 STARLINK-3941,1 52638U 22052AS  22146.36661610  .00052188  00000-0  37307-3 0  9996,2 52638  53.2152  22.5233 0001364 111.0004 249.1162 15.73255252  2635,6727.738,91.53,350.52,348.685,0.0
52638.0,STARLINK-3941,PAYLOAD,2022-05-26 12:00:00,15.73172125,0.0001232,53.2142,21.8632,118.2639,277.7965,0.00019099,0.00026236,0.0,0 STARLINK-3941,1 52638U 22052AS  22146.50001157  .00026236  00000-0  19099-3 0  9999,2 52638  53.2142  21.8632 0001232 118.2639 277.7965 15.73172125  2226,6727.975,91.535,350.6690000000001,349.011,0.0
52638.0,STARLINK-3941,PAYLOAD,2022-05-26 20:00:01,15.73228738,0.0001198,53.2143,20.2149,114.3776,10.6591,-9.3729e-05,-0.00013769,0.0,0 STARLINK-3941,1 52638U 22052AS  22146.83334491 -.00013769  00000-0 -93729-4 0  9997,2 52638  53.2143  20.2149 0001198 114.3776  10.6591 15.73228738  2279,6727.813,91.532,350.4840000000001,348.872,0.0
52638.0,STARLINK-3941,PAYLOAD,2022-05-26 22:31:13,15.73267659,0.0001452,53.2152,19.6946,121.3626,238.7537,0.0004241,0.00059496,0.0,0 STARLINK-3941,1 52638U 22052AS  22146.93835519  .00059496  00000-0  42410-3 0  9990,2 52638  53.2152  19.6946 0001452 121.3626 238.7537 15.73267659  2729,6727.7019999999975,91.529,350.5440000000001,348.59,0.0
52638.0,STARLINK-3941,PAYLOAD,2022-05-27 14:00:01,15.73160519,0.0001204,53.2147,16.5018,118.8424,296.3292,0.00040632,0.00056693,0.0,0 STARLINK-3941,1 52638U 22052AS  22147.58334491  .00056693  00000-0  40632-3 0  9995,2 52638  53.2147  16.5018 0001204 118.8424 296.3292 15.73160519  1309,6728.0080000000025,91.535,350.68300000000005,349.06300000000016,0.0
52638.0,STARLINK-3941,PAYLOAD,2022-05-27 19:51:56,15.73203593,0.0001553,53.2148,15.2927,121.9518,238.1654,0.00058619,0.00082473,0.0,0 STARLINK-3941,1 52638U 22052AS  22147.82773631  .00082473  00000-0  58619-3 0  9994,2 52638  53.2148  15.2927 0001553 121.9518 238.1654 15.73203593  2421,6727.885,91.533,350.795,348.705,0.0
52638.0,STARLINK-3941,PAYLOAD,2022-05-27 21:23:25,15.73237104,0.0001337,53.2148,14.9783,127.2794,232.8348,0.00031759,0.00044258,0.0,0 STARLINK-3941,1 52638U 22052AS  22147.89126649  .00044258  00000-0  31759-3 0  9997,2 52638  53.2148  14.9783 0001337 127.2794 232.8348 15.73237104  2877,6727.7890000000025,91.531,350.55400000000014,348.755,0.0
52638.0,STARLINK-3941,PAYLOAD,2022-05-28 04:00:00,15.73198163,8.759999999999999e-05,53.2147,13.6162,110.1209,10.7235,0.00027529,0.00038188,0.0,0 STARLINK-3941,1 52638U 22052AS  22148.16667824  .00038188  00000-0  27529-3 0  9998,2 52638  53.2147  13.6162 0000876 110.1209  10.7235 15.73198163  2488,6727.9,91.533,350.355,349.176,0.0
52638.0,STARLINK-3941,PAYLOAD,2022-05-28 12:00:00,15.73188712,0.0001034,53.214,11.9655,123.3992,86.39399999999998,0.00021611,0.00029802,0.0,0 STARLINK-3941,1 52638U 22052AS  22148.50001157  .00029802  00000-0  21611-3 0  9996,2 52638  53.2140  11.9655 0001034 123.3992  86.3940 15.73188712  2538,6727.927,91.534,350.48800000000006,349.097,0.0
52638.0,STARLINK-3941,PAYLOAD,2022-05-28 14:00:01,15.73197487,0.0001117,53.2142,11.5531,122.499,199.5244,8.882700000000001e-05,0.00011863,0.0,0 STARLINK-3941,1 52638U 22052AS  22148.58334491  .00011863  00000-0  88827-4 0  9995,2 52638  53.2142  11.5531 0001117 122.4990 199.5244 15.73197487  1306,6727.901999999999,91.533,350.519,349.016,0.0
52638.0,STARLINK-3941,PAYLOAD,2022-05-28 21:47:05,15.73225851,6.9e-05,53.2167,9.9489,126.9526,233.1557,0.00013537,0.00018441,0.0,0 STARLINK-3941,1 52638U 22052AS  22148.90770325  .00018441  00000-0  13537-3 0  9995,2 52638  53.2167   9.9489 0000690 126.9526 233.1557 15.73225851  3036,6727.821,91.532,350.151,349.222,0.0
52638.0,STARLINK-3941,PAYLOAD,2022-05-29 04:00:00,15.73233523,0.0001115,53.2139,8.6684,103.8476,283.7912,-0.00028798,-0.00040897,0.0,0 STARLINK-3941,1 52638U 22052AS  22149.16667824 -.00040897  00000-0 -28798-3 0  9990,2 52638  53.2139   8.6684 0001115 103.8476 283.7912 15.73233523  2635,6727.8,91.531,350.415,348.914,0.0
52638.0,STARLINK-3941,PAYLOAD,2022-05-29 12:00:00,15.73171182,0.0001288,53.2143,7.0167,115.0177,1.571,-0.00031568,-0.00044634,0.0,0 STARLINK-3941,1 52638U 22052AS  22149.50001157 -.00044634  00000-0 -31568-3 0  9991,2 52638  53.2143   7.0167 0001288 115.0177   1.5710 15.73171182  2693,6727.977,91.535,350.709,348.976,0.0
